COSMOS 2419 (714)       
1 28915U 05050A   17004.42606363 -.00000021  00000-0  00000+0 0  9990
2 28915  65.4160  71.3740 0014829 349.7564  95.8151  2.13109014 85848
COSMOS 2425 (716)       
1 29670U 06062A   17005.41506285 -.00000028  00000-0  10000-3 0  9997
2 29670  65.5419 310.3496 0022641 341.2606 197.9991  2.13104992 78066
COSMOS 2426 (717)       
1 29671U 06062B   17004.43621853 -.00000021  00000-0  10000-3 0  9991
2 29671  65.5596 310.4689 0016048 171.5945 196.2033  2.13103132 78055
COSMOS 2424 (715)       
1 29672U 06062C   17005.37154681 -.00000028  00000-0  10000-3 0  9993
2 29672  65.5436 310.3618 0015374 170.2817  10.8547  2.13102144 78069
COSMOS 2433 (720)       
1 32275U 07052A   17005.45630590 -.00000026  00000-0  10000-3 0  9991
2 32275  65.4318  71.1144 0003590 253.3924 149.6831  2.13104966 71586
COSMOS 2432 (719)       
1 32276U 07052B   17004.67691337 -.00000023  00000-0  10000-3 0  9998
2 32276  65.4437  71.2093 0011285 330.0378 148.3930  2.13104089 71569
COSMOS 2434 (721)       
1 32393U 07065A   17005.15537434 -.00000027  00000-0  00000+0 0  9992
2 32393  65.1592 309.5847 0001765 112.0060 310.7633  2.13102838 70283
COSMOS 2436 (723)       
1 32395U 07065C   17004.13543874 -.00000020  00000-0  10000-3 0  9994
2 32395  65.1694 309.6630 0015930 353.1014  55.0724  2.13104369 70196
COSMOS 2443 (725)       
1 33379U 08046B   17005.14317647 -.00000025  00000-0  00000+0 0  9996
2 33379  65.3605  70.5223 0016455 187.4657 237.8391  2.13102056 64441
COSMOS 2456 (730)       
1 36111U 09070A   17005.46018418  .00000121  00000-0  00000+0 0  9996
2 36111  64.1806 189.1414 0003330 349.9528 117.1381  2.13102969 54954
COSMOS 2457 (733)       
1 36112U 09070B   17004.82280109  .00000118  00000-0  00000+0 0  9990
2 36112  64.1617 189.0859 0007270 147.3555 320.0810  2.13101666 54948
COSMOS 2458 (734)       
1 36113U 09070C   17005.30951337  .00000121  00000-0  10000-3 0  9992
2 36113  64.1670 189.0759 0003102  59.8262 108.7048  2.13101986 54959
COSMOS 2459 (731)       
1 36400U 10007A   17005.12617309 -.00000025  00000-0  10000-3 0  9995
2 36400  65.3398  70.2502 0027170 350.6679  22.6482  2.13102225 53301
COSMOS 2461 (735)       
1 36401U 10007B   17004.89064765 -.00000024  00000-0  10000-3 0  9990
2 36401  65.3325  70.2383 0005317  73.9614  29.2654  2.13102216 53294
COSMOS 2460 (732)       
1 36402U 10007C   17005.14340744 -.00000025  00000-0  10000-3 0  9995
2 36402  65.3235  70.2064 0000947 233.3557 105.3336  2.13101840 53298
COSMOS 2465 (737)       
1 37138U 10041B   17005.49464791 -.00000030  00000-0  00000+0 0  9998
2 37138  64.7555 309.6428 0034384 174.5420 191.9673  2.13103732 49385
COSMOS 2464 (736)       
1 37139U 10041C   17004.62098909 -.00000024  00000-0  00000+0 0  9990
2 37139  64.7650 309.6722 0023297   7.0068 233.5184  2.13102632 49364
COSMOS 2471 (701K)      
1 37372U 11009A   17005.11683361 -.00000025  00000-0  00000+0 0  9992
2 37372  65.3218  70.1558 0008645 234.1954 217.3800  2.13102827 45574
COSMOS 2474 (742)       
1 37829U 11055A   17005.47180979  .00000122  00000-0  00000+0 0  9993
2 37829  64.5040 189.6379 0005863 243.3938  93.1169  2.13101946 40940
COSMOS 2476 (744)       
1 37867U 11064A   17004.33700095  .00000115  00000-0  00000+0 0  9998
2 37867  64.4835 189.7525 0015032 241.3822 350.4313  2.13102023 40279
COSMOS 2477 (745)       
1 37868U 11064B   17004.41232723  .00000115  00000-0  00000+0 0  9996
2 37868  64.4922 189.7926 0012921 242.5038 226.3270  2.13101880 40237
COSMOS 2475 (743)       
1 37869U 11064C   17005.43900772  .00000122  00000-0  00000+0 0  9994
2 37869  64.5001 189.7478 0017812 274.2797 218.5003  2.13102117 40261
COSMOS 2485 (747)       
1 39155U 13019A   17005.15222958  .00000120  00000-0  00000+0 0  9996
2 39155  64.6537 189.7192 0015519 235.2710 307.0490  2.13102058 28762
COSMOS 2492 (754)       
1 39620U 14012A   17005.40474175 -.00000026  00000-0  10000-3 0  9996
2 39620  65.2131  70.1549 0014887 327.1425  82.6523  2.13103509 21720
COSMOS 2500 (755)       
1 40001U 14032A   17004.69095044 -.00000023  00000-0  00000+0 0  9999
2 40001  65.1536  70.1894 0007101 210.3493 235.2147  2.13102824 19921
COSMOS 2501 (702K)      
1 40315U 14075A   17005.16345703 -.00000028  00000-0  00000+0 0  9992
2 40315  64.4911 311.0526 0015143 215.6223  40.4679  2.13100564 16338
COSMOS 2514 (751)       
1 41330U 16008A   17005.43505374 -.00000027  00000-0  00000+0 0  9999
2 41330  64.9545  70.3485 0010357 217.9596 258.0253  2.13103439  7107
COSMOS 2516 (753)       
1 41554U 16032A   17005.43335171 -.00000030  00000-0  00000+0 0  9994
2 41554  64.7104 310.7611 0012482 232.4106 135.7933  2.13101676  4717
